[{"OBJECT_NAME":"STARLINK-30113","OBJECT_ID":"2023-056F","EPOCH":"2026-03-09T22:00:01.999584","MEAN_MOTION":15.26733851,"ECCENTRICITY":0.00016214,"INCLINATION":42.9993,"RA_OF_ASC_NODE":207.2652,"ARG_OF_PERICENTER":290.656,"MEAN_ANOMALY":262.2282,"EPHEMERIS_TYPE":0,"CLASSIFICATION_TYPE":"U","NORAD_CAT_ID":56291,"ELEMENT_SET_NO":999,"REV_AT_EPOCH":572,"BSTAR":0.0014808701,"MEAN_MOTION_DOT":0.00039669,"MEAN_MOTION_DDOT":0},{"OBJECT_NAME":"KUIPER-00226","OBJECT_ID":"2026-030X","EPOCH":"2026-03-09T15:01:51.726432","MEAN_MOTION":15.30655594,"ECCENTRICITY":0.0017713,"INCLINATION":51.8814,"RA_OF_ASC_NODE":220.1252,"ARG_OF_PERICENTER":64.2781,"MEAN_ANOMALY":296.003,"EPHEMERIS_TYPE":0,"CLASSIFICATION_TYPE":"U","NORAD_CAT_ID":67785,"ELEMENT_SET_NO":999,"REV_AT_EPOCH":507,"BSTAR":0.001553,"MEAN_MOTION_DOT":0.00046834,"MEAN_MOTION_DDOT":0}]
